[{"OBJECT_NAME":"STARLINK-32418","OBJECT_ID":"2024-249W","EPOCH":"2026-03-09T02:20:02.663520","MEAN_MOTION":15.2759446,"ECCENTRICITY":0.0002836,"INCLINATION":43.0035,"RA_OF_ASC_NODE":317.363,"ARG_OF_PERICENTER":248.5584,"MEAN_ANOMALY":111.4966,"EPHEMERIS_TYPE":0,"CLASSIFICATION_TYPE":"U","NORAD_CAT_ID":62429,"ELEMENT_SET_NO":999,"REV_AT_EPOCH":6772,"BSTAR":0.0013582407,"MEAN_MOTION_DOT":0.00037322,"MEAN_MOTION_DDOT":0},{"OBJECT_NAME":"FLOCK 4G-2","OBJECT_ID":"2025-009BE","EPOCH":"2026-03-09T15:53:23.273952","MEAN_MOTION":15.2767526,"ECCENTRICITY":0.00031811,"INCLINATION":97.4044,"RA_OF_ASC_NODE":151.2221,"ARG_OF_PERICENTER":329.2677,"MEAN_ANOMALY":30.8376,"EPHEMERIS_TYPE":0,"CLASSIFICATION_TYPE":"U","NORAD_CAT_ID":62661,"ELEMENT_SET_NO":999,"REV_AT_EPOCH":12132,"BSTAR":0.00051068481,"MEAN_MOTION_DOT":0.00013752,"MEAN_MOTION_DDOT":0}]
